CCSDS_OMM_VERS = 2.0
CREATION_DATE  = 
ORIGINATOR     = 

OBJECT_NAME    = SL-16 R/B
OBJECT_ID      = 1993-016B
CENTER_NAME    = EARTH
REF_FRAME      = TEME
TIME_SYSTEM    = UTC
MEAN_ELEMENT_THEORY = SGP/SGP4

EPOCH          = 2025-12-05T22:04:52.272480
MEAN_MOTION    = 14.15288129
ECCENTRICITY   = .00078185
INCLINATION    = 71.0090
RA_OF_ASC_NODE = 52.1267
ARG_OF_PERICENTER = 110.6698
MEAN_ANOMALY   = 249.5264

EPHEMERIS_TYPE = 0
CLASSIFICATION_TYPE = U
NORAD_CAT_ID   = 22566
ELEMENT_SET_NO = 999
REV_AT_EPOCH   = 68890
BSTAR          = -.68903029E-4
MEAN_MOTION_DOT = -.182E-5
MEAN_MOTION_DDOT = 0

CCSDS_OMM_VERS = 2.0
CREATION_DATE  = 
ORIGINATOR     = 

OBJECT_NAME    = COSMOS 2242
OBJECT_ID      = 1993-024A
CENTER_NAME    = EARTH
REF_FRAME      = TEME
TIME_SYSTEM    = UTC
MEAN_ELEMENT_THEORY = SGP/SGP4

EPOCH          = 2025-12-05T11:30:09.210528
MEAN_MOTION    = 14.96060865
ECCENTRICITY   = .00147874
INCLINATION    = 82.5192
RA_OF_ASC_NODE = 356.7851
ARG_OF_PERICENTER = 261.2169
MEAN_ANOMALY   = 98.7379

EPHEMERIS_TYPE = 0
CLASSIFICATION_TYPE = U
NORAD_CAT_ID   = 22626
ELEMENT_SET_NO = 999
REV_AT_EPOCH   = 76630
BSTAR          = .36924948E-3
MEAN_MOTION_DOT = .418E-4
MEAN_MOTION_DDOT = 0

CCSDS_OMM_VERS = 2.0
CREATION_DATE  = 
ORIGINATOR     = 

OBJECT_NAME    = SL-16 R/B
OBJECT_ID      = 1993-059B
CENTER_NAME    = EARTH
REF_FRAME      = TEME
TIME_SYSTEM    = UTC
MEAN_ELEMENT_THEORY = SGP/SGP4

EPOCH          = 2025-12-05T22:57:00.278208
MEAN_MOTION    = 14.17211844
ECCENTRICITY   = .00175919
INCLINATION    = 70.9898
RA_OF_ASC_NODE = 208.7906
ARG_OF_PERICENTER = 345.5047
MEAN_ANOMALY   = 14.5570

EPHEMERIS_TYPE = 0
CLASSIFICATION_TYPE = U
NORAD_CAT_ID   = 22803
ELEMENT_SET_NO = 999
REV_AT_EPOCH   = 66625
BSTAR          = .17183176E-3
MEAN_MOTION_DOT = .299E-5
MEAN_MOTION_DDOT = 0

CCSDS_OMM_VERS = 2.0
CREATION_DATE  = 
ORIGINATOR     = 

OBJECT_NAME    = ARIANE 40 R/B
OBJECT_ID      = 1993-061H
CENTER_NAME    = EARTH
REF_FRAME      = TEME
TIME_SYSTEM    = UTC
MEAN_ELEMENT_THEORY = SGP/SGP4

EPOCH          = 2025-12-05T21:56:29.994720
MEAN_MOTION    = 14.32794415
ECCENTRICITY   = .00104895
INCLINATION    = 98.5084
RA_OF_ASC_NODE = 45.5681
ARG_OF_PERICENTER = 196.3634
MEAN_ANOMALY   = 163.7213

EPHEMERIS_TYPE = 0
CLASSIFICATION_TYPE = U
NORAD_CAT_ID   = 22830
ELEMENT_SET_NO = 999
REV_AT_EPOCH   = 68067
BSTAR          = .20999786E-3
MEAN_MOTION_DOT = .529E-5
MEAN_MOTION_DDOT = 0

CCSDS_OMM_VERS = 2.0
CREATION_DATE  = 
ORIGINATOR     = 

OBJECT_NAME    = COSMOS 2278
OBJECT_ID      = 1994-023A
CENTER_NAME    = EARTH
REF_FRAME      = TEME
TIME_SYSTEM    = UTC
MEAN_ELEMENT_THEORY = SGP/SGP4

EPOCH          = 2025-12-05T12:49:07.868640
MEAN_MOTION    = 14.14351405
ECCENTRICITY   = .00087168
INCLINATION    = 71.0550
RA_OF_ASC_NODE = 12.0863
ARG_OF_PERICENTER = 190.8749
MEAN_ANOMALY   = 169.2187

EPHEMERIS_TYPE = 0
CLASSIFICATION_TYPE = U
NORAD_CAT_ID   = 23087
ELEMENT_SET_NO = 999
REV_AT_EPOCH   = 63149
BSTAR          = .24564076E-4
MEAN_MOTION_DOT = 0
MEAN_MOTION_DDOT = 0

CCSDS_OMM_VERS = 2.0
CREATION_DATE  = 
ORIGINATOR     = 

OBJECT_NAME    = SL-16 R/B
OBJECT_ID      = 1994-023B
CENTER_NAME    = EARTH
REF_FRAME      = TEME
TIME_SYSTEM    = UTC
MEAN_ELEMENT_THEORY = SGP/SGP4

EPOCH          = 2025-12-05T23:26:56.546304
MEAN_MOTION    = 14.15000000
ECCENTRICITY   = .00010894
INCLINATION    = 71.0006
RA_OF_ASC_NODE = 267.6871
ARG_OF_PERICENTER = 57.8919
MEAN_ANOMALY   = 302.2310

EPHEMERIS_TYPE = 0
CLASSIFICATION_TYPE = U
NORAD_CAT_ID   = 23088
ELEMENT_SET_NO = 999
REV_AT_EPOCH   = 63283
BSTAR          = .20280246E-3
MEAN_MOTION_DOT = .345E-5
MEAN_MOTION_DDOT = 0

CCSDS_OMM_VERS = 2.0
CREATION_DATE  = 
ORIGINATOR     = 

OBJECT_NAME    = SL-16 R/B
OBJECT_ID      = 1994-074B
CENTER_NAME    = EARTH
REF_FRAME      = TEME
TIME_SYSTEM    = UTC
MEAN_ELEMENT_THEORY = SGP/SGP4

EPOCH          = 2025-12-05T23:28:59.725056
MEAN_MOTION    = 14.79277749
ECCENTRICITY   = .00070701
INCLINATION    = 97.7208
RA_OF_ASC_NODE = 9.5516
ARG_OF_PERICENTER = 155.4607
MEAN_ANOMALY   = 266.4095

EPHEMERIS_TYPE = 0
CLASSIFICATION_TYPE = U
NORAD_CAT_ID   = 23343
ELEMENT_SET_NO = 999
REV_AT_EPOCH   = 67339
BSTAR          = .13484608E-3
MEAN_MOTION_DOT = .954E-5
MEAN_MOTION_DDOT = 0

CCSDS_OMM_VERS = 2.0
CREATION_DATE  = 
ORIGINATOR     = 

OBJECT_NAME    = SL-16 R/B
OBJECT_ID      = 1994-077B
CENTER_NAME    = EARTH
REF_FRAME      = TEME
TIME_SYSTEM    = UTC
MEAN_ELEMENT_THEORY = SGP/SGP4

EPOCH          = 2025-12-05T22:11:17.704608
MEAN_MOTION    = 14.15546159
ECCENTRICITY   = .0004576
INCLINATION    = 70.9811
RA_OF_ASC_NODE = 189.7513
ARG_OF_PERICENTER = 289.2016
MEAN_ANOMALY   = 70.8611

EPHEMERIS_TYPE = 0
CLASSIFICATION_TYPE = U
NORAD_CAT_ID   = 23405
ELEMENT_SET_NO = 999
REV_AT_EPOCH   = 60296
BSTAR          = .92991363E-4
MEAN_MOTION_DOT = .134E-5
MEAN_MOTION_DDOT = 0

CCSDS_OMM_VERS = 2.0
CREATION_DATE  = 
ORIGINATOR     = 

OBJECT_NAME    = ARIANE 40+ R/B
OBJECT_ID      = 1995-021B
CENTER_NAME    = EARTH
REF_FRAME      = TEME
TIME_SYSTEM    = UTC
MEAN_ELEMENT_THEORY = SGP/SGP4

EPOCH          = 2025-12-05T22:43:56.940384
MEAN_MOTION    = 14.39687380
ECCENTRICITY   = .00076957
INCLINATION    = 98.4659
RA_OF_ASC_NODE = 47.6177
ARG_OF_PERICENTER = 67.7054
MEAN_ANOMALY   = 105.0746

EPHEMERIS_TYPE = 0
CLASSIFICATION_TYPE = U
NORAD_CAT_ID   = 23561
ELEMENT_SET_NO = 999
REV_AT_EPOCH   = 60575
BSTAR          = .21836E-3
MEAN_MOTION_DOT = .64E-5
MEAN_MOTION_DDOT = 0

CCSDS_OMM_VERS = 2.0
CREATION_DATE  = 
ORIGINATOR     = 

OBJECT_NAME    = SL-16 R/B
OBJECT_ID      = 1995-058B
CENTER_NAME    = EARTH
REF_FRAME      = TEME
TIME_SYSTEM    = UTC
MEAN_ELEMENT_THEORY = SGP/SGP4

EPOCH          = 2025-12-05T13:45:53.041248
MEAN_MOTION    = 14.15480267
ECCENTRICITY   = .00148867
INCLINATION    = 71.0226
RA_OF_ASC_NODE = 17.8501
ARG_OF_PERICENTER = 264.1801
MEAN_ANOMALY   = 95.7625

EPHEMERIS_TYPE = 0
CLASSIFICATION_TYPE = U
NORAD_CAT_ID   = 23705
ELEMENT_SET_NO = 999
REV_AT_EPOCH   = 55453
BSTAR          = .21920385E-3
MEAN_MOTION_DOT = .381E-5
MEAN_MOTION_DDOT = 0

CCSDS_OMM_VERS = 2.0
CREATION_DATE  = 
ORIGINATOR     = 

OBJECT_NAME    = SL-16 R/B
OBJECT_ID      = 1996-051B
CENTER_NAME    = EARTH
REF_FRAME      = TEME
TIME_SYSTEM    = UTC
MEAN_ELEMENT_THEORY = SGP/SGP4

EPOCH          = 2025-12-05T13:09:11.278080
MEAN_MOTION    = 14.12395435
ECCENTRICITY   = .001927
INCLINATION    = 70.7600
RA_OF_ASC_NODE = 14.5069
ARG_OF_PERICENTER = 270.2818
MEAN_ANOMALY   = 89.6094

EPHEMERIS_TYPE = 0
CLASSIFICATION_TYPE = U
NORAD_CAT_ID   = 24298
ELEMENT_SET_NO = 999
REV_AT_EPOCH   = 50835
BSTAR          = .56606216E-4
MEAN_MOTION_DOT = .55E-6
MEAN_MOTION_DDOT = 0

CCSDS_OMM_VERS = 2.0
CREATION_DATE  = 
ORIGINATOR     = 

OBJECT_NAME    = ORBVIEW 2 (SEASTAR)
OBJECT_ID      = 1997-037A
CENTER_NAME    = EARTH
REF_FRAME      = TEME
TIME_SYSTEM    = UTC
MEAN_ELEMENT_THEORY = SGP/SGP4

EPOCH          = 2025-12-05T22:40:22.372032
MEAN_MOTION    = 14.35409165
ECCENTRICITY   = .0001991
INCLINATION    = 98.8455
RA_OF_ASC_NODE = 136.8482
ARG_OF_PERICENTER = 3.3554
MEAN_ANOMALY   = 356.7643

EPHEMERIS_TYPE = 0
CLASSIFICATION_TYPE = U
NORAD_CAT_ID   = 24883
ELEMENT_SET_NO = 999
REV_AT_EPOCH   = 49502
BSTAR          = .22965509E-3
MEAN_MOTION_DOT = .613E-5
MEAN_MOTION_DDOT = 0

