SL-16 R/B               
1 22566U 93016B   25339.92004945 -.00000182  00000+0 -68903-4 0  9997
2 22566  71.0090  52.1267 0007818 110.6698 249.5264 14.15288129688902
COSMOS 2242             
1 22626U 93024A   25339.47927327  .00004180  00000+0  36925-3 0  9999
2 22626  82.5192 356.7851 0014787 261.2169  98.7379 14.96060865766306
SL-16 R/B               
1 22803U 93059B   25339.95625322  .00000299  00000+0  17183-3 0  9999
2 22803  70.9898 208.7906 0017591 345.5047  14.5570 14.17211844666251
ARIANE 40 R/B           
1 22830U 93061H   25339.91423605  .00000529  00000+0  21000-3 0  9997
2 22830  98.5084  45.5681 0010489 196.3634 163.7213 14.32794415680674
COSMOS 2278             
1 23087U 94023A   25339.53411885  .00000000  00000+0  24564-4 0  9999
2 23087  71.0550  12.0863 0008716 190.8749 169.2187 14.14351405631495
SL-16 R/B               
1 23088U 94023B   25339.97704336  .00000345  00000+0  20280-3 0  9996
2 23088  71.0006 267.6871 0001089  57.8919 302.2310 14.15000000632835
SL-16 R/B               
1 23343U 94074B   25339.97846904  .00000954  00000+0  13485-3 0  9999
2 23343  97.7208   9.5516 0007070 155.4607 266.4095 14.79277749673395
SL-16 R/B               
1 23405U 94077B   25339.92451047  .00000134  00000+0  92991-4 0  9996
2 23405  70.9811 189.7513 0004576 289.2016  70.8611 14.15546159602963
ARIANE 40+ R/B          
1 23561U 95021B   25339.94718681  .00000640  00000+0  21836-3 0  9992
2 23561  98.4659  47.6177 0007695  67.7054 105.0746 14.39687380605753
SL-16 R/B               
1 23705U 95058B   25339.57353057  .00000381  00000+0  21920-3 0  9999
2 23705  71.0226  17.8501 0014886 264.1801  95.7625 14.15480267554532
SL-16 R/B               
1 24298U 96051B   25339.54804720  .00000055  00000+0  56606-4 0  9994
2 24298  70.7600  14.5069 0019270 270.2818  89.6094 14.12395435508353
ORBVIEW 2 (SEASTAR)     
1 24883U 97037A   25339.94470338  .00000613  00000+0  22966-3 0  9998
2 24883  98.8455 136.8482 0001991   3.3554 356.7643 14.35409165495020
